{
    "links": {
        "self": "http://www.neowsapp.com/rest/v1/neo/3711780?api_key=iIulBulltgU6a56xZRHN4H3l9WmuAYTsLGpBGhQ2"
    },
    "id": "3711780",
    "neo_reference_id": "3711780",
    "name": "(2015 DK155)",
    "designation": "2015 DK155",
    "nasa_jpl_url": "http://ssd.jpl.nasa.gov/sbdb.cgi?sstr=3711780",
    "absolute_magnitude_h": 23.8,
    "estimated_diameter": {
        "kilometers": {
            "estimated_diameter_min": 0.046190746,
            "estimated_diameter_max": 0.1032856481
        },
        "meters": {
            "estimated_diameter_min": 46.1907460282,
            "estimated_diameter_max": 103.2856480504
        },
        "miles": {
            "estimated_diameter_min": 0.0287015901,
            "estimated_diameter_max": 0.0641787064
        },
        "feet": {
            "estimated_diameter_min": 151.544447199,
            "estimated_diameter_max": 338.8636855496
        }
    },
    "is_potentially_hazardous_asteroid": false,
    "close_approach_data": [
        {
            "close_approach_date": "2015-03-05",
            "close_approach_date_full": "2015-Mar-05 11:28",
            "epoch_date_close_approach": 1425554880000,
            "relative_velocity": {
                "kilometers_per_second": "12.3412404098",
                "kilometers_per_hour": "44428.4654751108",
                "miles_per_hour": "27606.1206725765"
            },
            "miss_distance": {
                "astronomical": "0.0779402951",
                "lunar": "30.3187747939",
                "kilometers": "11659702.134131437",
                "miles": "7245002.9508983506"
            },
            "orbiting_body": "Earth"
        },
        {
            "close_approach_date": "2088-02-25",
            "close_approach_date_full": "2088-Feb-25 04:26",
            "epoch_date_close_approach": 3728521560000,
            "relative_velocity": {
                "kilometers_per_second": "16.1661412448",
                "kilometers_per_hour": "58198.1084812019",
                "miles_per_hour": "36162.0413504446"
            },
            "miss_distance": {
                "astronomical": "0.0652431307",
                "lunar": "25.3795778423",
                "kilometers": "9760233.384851609",
                "miles": "6064727.8001818442"
            },
            "orbiting_body": "Earth"
        },
        {
            "close_approach_date": "2154-08-16",
            "close_approach_date_full": "2154-Aug-16 04:35",
            "epoch_date_close_approach": 5826141300000,
            "relative_velocity": {
                "kilometers_per_second": "17.1018983944",
                "kilometers_per_hour": "61566.8342199577",
                "miles_per_hour": "38255.2365185065"
            },
            "miss_distance": {
                "astronomical": "0.1142862503",
                "lunar": "44.4573513667",
                "kilometers": "17096979.615166861",
                "miles": "10623570.5113542418"
            },
            "orbiting_body": "Earth"
        }
    ],
    "orbital_data": {
        "orbit_id": "6",
        "orbit_determination_date": "2017-04-06 08:35:30",
        "first_observation_date": "2015-02-19",
        "last_observation_date": "2015-02-25",
        "data_arc_in_days": 6,
        "observations_used": 49,
        "orbit_uncertainty": "8",
        "minimum_orbit_intersection": ".0161277",
        "jupiter_tisserand_invariant": "4.568",
        "epoch_osculation": "2457075.5",
        "eccentricity": ".4677636248776029",
        "semi_major_axis": "1.421938719476088",
        "inclination": "10.38383680511757",
        "ascending_node_longitude": "334.2471887231043",
        "orbital_period": "619.3266198649884",
        "perihelion_distance": ".7568075097001361",
        "perihelion_argument": "260.5955358605428",
        "aphelion_distance": "2.08706992925204",
        "perihelion_time": "2457136.985274259359",
        "mean_anomaly": "324.2600559649857",
        "mean_motion": ".5812764839310137",
        "equinox": "J2000",
        "orbit_class": {
            "orbit_class_type": "APO",
            "orbit_class_description": "Near-Earth asteroid orbits which cross the Earth’s orbit similar to that of 1862 Apollo",
            "orbit_class_range": "a (semi-major axis) > 1.0 AU; q (perihelion) < 1.017 AU"
        }
    },
    "is_sentry_object": false
}